
# Worst residual: 6.10 km
# MJD 59065.000000 (2020 Aug  4  0:00)
1999-066B = XMM-Newton booster = NORAD 25990
1 25990U 99066B   20217.49919926  .00000000  00000-0  00000-0 0  8568
2 25990 061.1654 027.9807 8469917 092.5379 011.4203 00.55287896    03

# Worst residual: 2.70 km
# MJD 59066.000000 (2020 Aug  5  0:00)
1999-066B = XMM-Newton booster = NORAD 25990
1 25990U 99066B   20218.49919926  .00000000  00000-0  00000-0 0  8569
2 25990 061.1632 027.9217 8469011 092.5536 210.5515 00.55301395    03

# Worst residual: 5.94 km
# MJD 59067.000000 (2020 Aug  6  0:00)
1999-066B = XMM-Newton booster = NORAD 25990
1 25990U 99066B   20219.49919926  .00000000  00000-0  00000-0 0  8560
2 25990 061.1726 027.8428 8469276 092.5771 049.6360 00.55294541    07

# Worst residual: 2.48 km
# MJD 59068.000000 (2020 Aug  7  0:00)
1999-066B = XMM-Newton booster = NORAD 25990
1 25990U 99066B   20220.49919926  .00000000  00000-0  00000-0 0  8562
2 25990 061.1713 027.8008 8469651 092.5817 248.7725 00.55304133    01

# Worst residual: 6.04 km
# MJD 59069.000000 (2020 Aug  8  0:00)
1999-066B = XMM-Newton booster = NORAD 25990
1 25990U 99066B   20221.49919926  .00000000  00000-0  00000-0 0  8563
2 25990 061.1760 027.7137 8469884 092.6084 087.8624 00.55299776    06

# Worst residual: 5.85 km
# MJD 59070.000000 (2020 Aug  9  0:00)
1999-066B = XMM-Newton booster = NORAD 25990
1 25990U 99066B   20222.49919926  .00000000  00000-0  00000-0 0  8564
2 25990 061.1767 027.6809 8470922 092.6124 286.9783 00.55304968    06

# Worst residual: 2.51 km
# MJD 59071.000000 (2020 Aug 10  0:00)
1999-066B = XMM-Newton booster = NORAD 25990
1 25990U 99066B   20223.49919926  .00000000  00000-0  00000-0 0  8565
2 25990 061.1801 027.5916 8471272 092.6421 126.0691 00.55300438    02

# Worst residual: 5.05 km
# MJD 59072.000000 (2020 Aug 11  0:00)
1999-066B = XMM-Newton booster = NORAD 25990
1 25990U 99066B   20224.49919926  .00000000  00000-0  00000-0 0  8566
2 25990 061.1848 027.5453 8472180 092.6549 325.1712 00.55300933    05

# Worst residual: 3.47 km
# MJD 59073.000000 (2020 Aug 12  0:00)
1999-066B = XMM-Newton booster = NORAD 25990
1 25990U 99066B   20225.49919926  .00000000  00000-0  00000-0 0  8567
2 25990 061.1848 027.4775 8472137 092.6796 164.2531 00.55298618    04

# Worst residual: 5.52 km
# MJD 59074.000000 (2020 Aug 13  0:00)
1999-066B = XMM-Newton booster = NORAD 25990
1 25990U 99066B   20226.49919926  .00000000  00000-0  00000-0 0  8568
2 25990 061.1903 027.4242 8472902 092.6965 003.3467 00.55294109    05

# Worst residual: 4.48 km
# MJD 59075.000000 (2020 Aug 14  0:00)
1999-066B = XMM-Newton booster = NORAD 25990
1 25990U 99066B   20227.49919926  .00000000  00000-0  00000-0 0  8569
2 25990 061.1894 027.3721 8472130 092.7129 202.4336 00.55296754    06

# Worst residual: 5.95 km
# MJD 59076.000000 (2020 Aug 15  0:00)
1999-066B = XMM-Newton booster = NORAD 25990
1 25990U 99066B   20228.49919926  .00000000  00000-0  00000-0 0  8560
2 25990 061.1941 027.3123 8473061 092.7334 041.5197 00.55291205    00

# Worst residual: 3.79 km
# MJD 59077.000000 (2020 Aug 16  0:00)
1999-066B = XMM-Newton booster = NORAD 25990
1 25990U 99066B   20229.49919926  .00000000  00000-0  00000-0 0  8561
2 25990 061.1918 027.2772 8472338 092.7397 240.6150 00.55295187    02

# Worst residual: 8.45 km
# MJD 59078.000000 (2020 Aug 17  0:00)
1999-066B = XMM-Newton booster = NORAD 25990
1 25990U 99066B   20230.49919926  .00000000  00000-0  00000-0 0  8563
2 25990 061.1953 027.1959 8473277 092.7722 079.6938 00.55294979    04

# Worst residual: 2.65 km
# MJD 59079.000000 (2020 Aug 18  0:00)
1999-066B = XMM-Newton booster = NORAD 25990
1 25990U 99066B   20231.49919926  .00000000  00000-0  00000-0 0  8564
2 25990 061.1943 027.1721 8473359 092.7766 278.7801 00.55298752    03

# Worst residual: 4.76 km
# MJD 59080.000000 (2020 Aug 19  0:00)
1999-066B = XMM-Newton booster = NORAD 25990
1 25990U 99066B   20232.49919926  .00000000  00000-0  00000-0 0  8565
2 25990 061.1988 027.0749 8473026 092.8180 117.8641 00.55296367    08

# Worst residual: 6.39 km
# MJD 59081.000000 (2020 Aug 20  0:00)
1999-066B = XMM-Newton booster = NORAD 25990
1 25990U 99066B   20233.49919926  .00000000  00000-0  00000-0 0  8566
2 25990 061.2044 027.0301 8473413 092.8324 316.9295 00.55304314    05

# Worst residual: 3.31 km
# MJD 59082.000000 (2020 Aug 21  0:00)
1999-066B = XMM-Newton booster = NORAD 25990
1 25990U 99066B   20234.49919926  .00000000  00000-0  00000-0 0  8567
2 25990 061.2044 026.9568 8473148 092.8596 156.0286 00.55300667    04

# Worst residual: 7.63 km
# MJD 59083.000000 (2020 Aug 22  0:00)
1999-066B = XMM-Newton booster = NORAD 25990
1 25990U 99066B   20235.49919926  .00000000  00000-0  00000-0 0  8568
2 25990 061.2114 026.8930 8472584 092.8814 355.0895 00.55308455    00

# Worst residual: 3.15 km
# MJD 59084.000000 (2020 Aug 23  0:00)
1999-066B = XMM-Newton booster = NORAD 25990
1 25990U 99066B   20236.49919926  .00000000  00000-0  00000-0 0  8569
2 25990 061.2100 026.8297 8472730 092.9002 194.1969 00.55305105    07

# Worst residual: 6.99 km
# MJD 59085.000000 (2020 Aug 24  0:00)
1999-066B = XMM-Newton booster = NORAD 25990
1 25990U 99066B   20237.49919926  .00000000  00000-0  00000-0 0  8560
2 25990 061.2154 026.7639 8472032 092.9162 033.2842 00.55303134    00

# Worst residual: 3.80 km
# MJD 59086.000000 (2020 Aug 25  0:00)
1999-066B = XMM-Newton booster = NORAD 25990
1 25990U 99066B   20238.49919926  .00000000  00000-0  00000-0 0  8561
2 25990 061.2122 026.7026 8472703 092.9296 232.3948 00.55304610    07

# Worst residual: 9.62 km
# MJD 59087.000000 (2020 Aug 26  0:00)
1999-066B = XMM-Newton booster = NORAD 25990
1 25990U 99066B   20239.49919926  .00000000  00000-0  00000-0 0  8562
2 25990 061.2138 026.6263 8473100 092.9510 071.4934 00.55298316    09

# Worst residual: 4.33 km
# MJD 59088.000000 (2020 Aug 27  0:00)
1999-066B = XMM-Newton booster = NORAD 25990
1 25990U 99066B   20240.49919926  .00000000  00000-0  00000-0 0  8564
2 25990 061.2114 026.5567 8474609 092.9696 270.6033 00.55300881    03

# Worst residual: 2.68 km
# MJD 59089.000000 (2020 Aug 28  0:00)
1999-066B = XMM-Newton booster = NORAD 25990
1 25990U 99066B   20241.49919926  .00000000  00000-0  00000-0 0  8565
2 25990 061.2119 026.4477 8475148 093.0158 109.6892 00.55295784    00

# Worst residual: 8.18 km
# MJD 59090.000000 (2020 Aug 29  0:00)
1999-066B = XMM-Newton booster = NORAD 25990
1 25990U 99066B   20242.49919926  .00000000  00000-0  00000-0 0  8566
2 25990 061.2196 026.3611 8476636 093.0483 308.7905 00.55297092    09

# Worst residual: 3.11 km
# MJD 59091.000000 (2020 Aug 30  0:00)
1999-066B = XMM-Newton booster = NORAD 25990
1 25990U 99066B   20243.49919926  .00000000  00000-0  00000-0 0  8567
2 25990 061.2195 026.2717 8475826 093.0853 147.8854 00.55297687    00
